MEAN_MOTION;ECCENTRICITY;INCLINATION;RA_OF_ASC_NODE;ARG_OF_PERICENTER;MEAN_ANOMALY;BSTAR;MEAN_MOTION_DOT;MEAN_MOTION_DDOT;TYPE
14.43280085;0.0002599;86.4465;116.1431;85.1364;275.0133;1.6138E-5;7.4E-7;0;Iridium
14.43280208;0.0002584;86.4464;115.7662;84.7241;275.4255;1.875E-5;8.3E-7;0;Iridium
14.43280198;0.0002581;86.4464;115.7371;84.5522;275.5973;1.8067E-5;8.1E-7;0;Iridium
14.43280309;0.0002552;86.4461;115.3309;83.7071;276.442;1.9486E-5;8.6E-7;0;Iridium
14.43280315;0.000255;86.4461;115.3019;83.6305;276.5186;1.9273E-5;8.5E-7;0;Iridium
14.43280365;0.000253;86.446;114.954;83.8225;276.3265;1.8676E-5;8.3E-7;0;Iridium
14.43280386;0.000253;86.446;114.9249;83.832;276.3169;1.8748E-5;8.3E-7;0;Iridium
14.43280509;0.0002518;86.4459;114.5189;83.3044;276.8443;1.9638E-5;8.6E-7;0;Iridium
14.43280509;0.0002518;86.4459;114.5189;83.3044;276.8443;1.9638E-5;8.6E-7;0;Iridium
14.43280617;0.0002503;86.4458;114.1128;83.0809;277.0677;1.9228E-5;8.5E-7;0;Iridium
14.43280675;0.0002489;86.4456;113.7068;82.8389;277.3095;1.6895E-5;7.7E-7;0;Iridium
14.43280841;0.0002486;86.4456;113.6198;82.7123;277.4361;1.9552E-5;8.6E-7;0;Iridium
14.43281017;0.0002464;86.4456;113.2718;82.4182;277.7299;2.0707E-5;9.0E-7;0;Iridium
14.43281033;0.0002463;86.4455;113.2427;82.3667;277.7814;2.0432E-5;8.9E-7;0;Iridium
14.43281246;0.0002438;86.4454;112.7496;81.8833;278.2644;1.9905E-5;8.7E-7;0;Iridium
14.43281378;0.000241;86.4453;112.4014;81.4228;278.7246;1.8832E-5;8.4E-7;0;Iridium
14.43281403;0.0002409;86.4452;112.3144;81.3939;278.7534;1.9214E-5;8.5E-7;0;Iridium
14.4328145;0.0002385;86.4452;112.0242;81.3024;278.8447;1.5688E-5;7.3E-7;0;Iridium
14.43281456;0.0002378;86.4452;111.8502;81.36;278.787;1.3193E-5;6.5E-7;0;Iridium
14.43281457;0.0002361;86.4451;111.5891;81.2588;278.888;9.3487E-6;5.2E-7;0;Iridium
14.43281457;0.0002361;86.4451;111.5891;81.2588;278.888;9.3487E-6;5.2E-7;0;Iridium
14.43281464;0.0002355;86.4451;111.415;81.1078;279.0389;8.7429E-6;5.0E-7;0;Iridium
14.43281517;0.0002341;86.445;111.1539;80.9155;279.2311;9.3782E-6;5.2E-7;0;Iridium
14.43281538;0.0002337;86.445;111.0088;80.8617;279.2848;1.0826E-5;5.7E-7;0;Iridium
14.43281603;0.0002319;86.4449;110.7477;80.7943;279.352;1.1821E-5;6.0E-7;0;Iridium
14.43281601;0.0002317;86.4449;110.7187;80.7532;279.3931;1.117E-5;5.8E-7;0;Iridium
14.43281652;0.0002311;86.4449;110.5736;80.6806;279.4656;1.4112E-5;6.8E-7;0;Iridium
14.43281729;0.0002295;86.4448;110.3415;80.5933;279.5527;1.661E-5;7.6E-7;0;Iridium
14.43281733;0.0002293;86.4448;110.3125;80.5721;279.5739;1.6337E-5;7.5E-7;0;Iridium
14.43281782;0.0002288;86.4448;110.1675;80.5433;279.6026;1.822E-5;8.1E-7;0;Iridium
14.43281847;0.0002273;86.4447;109.9063;80.4372;279.7086;1.8139E-5;8.1E-7;0;Iridium
14.43281847;0.0002273;86.4447;109.9063;80.4372;279.7086;1.8139E-5;8.1E-7;0;Iridium
14.43281982;0.0002246;86.4446;109.4711;80.2673;279.8781;1.9873E-5;8.7E-7;0;Iridium
14.43282027;0.0002241;86.4446;109.3551;80.2413;279.904;2.1697E-5;9.3E-7;0;Iridium
14.43282109;0.0002225;86.4446;109.0939;80.1869;279.9583;2.1237E-5;9.2E-7;0;Iridium
14.43282167;0.0002219;86.4445;108.9198;80.1046;280.0405;2.2018E-5;9.4E-7;0;Iridium
14.4328223;0.00022;86.4445;108.6587;80.1334;280.0115;1.9757E-5;8.7E-7;0;Iridium
14.4328223;0.00022;86.4445;108.6587;80.1334;280.0115;1.9757E-5;8.7E-7;0;Iridium
14.43282274;0.0002193;86.4445;108.4846;80.0969;280.0479;1.9813E-5;8.7E-7;0;Iridium
14.43282317;0.0002177;86.4445;108.2815;80.2108;279.9339;1.84E-5;8.2E-7;0;Iridium
14.43282352;0.000217;86.4444;108.1074;80.1601;279.9845;1.7597E-5;7.9E-7;0;Iridium
14.43282374;0.0002156;86.4445;107.8463;80.216;279.9284;1.3427E-5;6.5E-7;0;Iridium
14.43282373;0.0002155;86.4445;107.8173;80.1712;279.9732;1.2656E-5;6.3E-7;0;Iridium
14.43282408;0.0002149;86.4444;107.6432;80.2178;279.9266;1.2539E-5;6.2E-7;0;Iridium
14.43282428;0.0002133;86.4445;107.411;80.2353;279.9089;9.7461E-6;5.3E-7;0;Iridium
14.4328243;0.0002132;86.4445;107.382;80.2198;279.9243;9.319E-6;5.2E-7;0;Iridium
14.43282466;0.0002124;86.4444;107.237;80.2806;279.8634;1.0119E-5;5.4E-7;0;Iridium
14.43282489;0.0002107;86.4445;106.9758;80.3664;279.7775;7.3796E-6;4.5E-7;0;Iridium
14.43282515;0.00021;86.4444;106.8017;80.391;279.7528;7.3991E-6;4.5E-7;0;Iridium
14.43282532;0.0002097;86.4445;106.7437;80.4642;279.6796;7.3641E-6;4.5E-7;0;Iridium
14.4328258;0.000208;86.4445;106.3956;80.6463;279.4973;7.2861E-6;4.5E-7;0;Iridium
14.4328259;0.0002074;86.4445;106.3085;80.735;279.4085;6.9411E-6;4.4E-7;0;Iridium
14.43282607;0.0002063;86.4445;106.1634;80.8327;279.3107;6.248E-6;4.1E-7;0;Iridium
14.43282616;0.0002062;86.4445;106.1344;80.819;279.3244;6.3193E-6;4.1E-7;0;Iridium
14.43282741;0.0002042;86.4445;105.7572;81.0861;279.0571;9.8478E-6;5.3E-7;0;Iridium
14.43282805;0.0002035;86.4445;105.5541;81.1391;279.0041;1.1528E-5;5.9E-7;0;Iridium
14.43282894;0.0002025;86.4445;105.351;81.4369;278.7062;1.4153E-5;6.8E-7;0;Iridium
14.43282972;0.0002016;86.4445;105.1479;81.6155;278.5274;1.6495E-5;7.6E-7;0;Iridium
14.43283018;0.0002001;86.4445;104.8867;81.8113;278.3315;1.6254E-5;7.5E-7;0;Iridium
14.43283059;0.0001996;86.4445;104.7126;81.9328;278.21;1.7192E-5;7.8E-7;0;Iridium
14.43283106;0.0001988;86.4445;104.5385;82.116;278.0266;1.8236E-5;8.2E-7;0;Iridium
14.43276604;0.0001944;86.4446;104.0743;82.2014;277.9407;2.0023E-5;8.8E-7;0;Iridium
14.43276604;0.0001944;86.4446;104.0743;82.2014;277.9407;2.0023E-5;8.8E-7;0;Iridium
14.43276657;0.0001931;86.4447;103.6392;82.9887;277.1533;9.9638E-6;5.4E-7;0;Iridium
14.43276657;0.0001931;86.4447;103.6392;82.9887;277.1533;9.9638E-6;5.4E-7;0;Iridium
14.43276718;0.0001926;86.4446;103.4652;83.1869;276.9551;1.3838E-5;6.7E-7;0;Iridium
14.43276735;0.0001915;86.4447;103.233;83.5805;276.5614;1.1425E-5;5.9E-7;0;Iridium
14.43276803;0.0001911;86.4447;103.059;83.8398;276.3021;1.4481E-5;6.9E-7;0;Iridium
14.43276821;0.0001897;86.4447;102.8269;84.0722;276.0695;1.1708E-5;6.0E-7;0;Iridium
14.43276867;0.0001891;86.4447;102.6238;84.3057;275.836;1.1718E-5;6.0E-7;0;Iridium
14.43277029;0.0001881;86.4448;102.2176;84.9247;275.2168;1.3748E-5;6.6E-7;0;Iridium
14.43277127;0.000188;86.4449;101.9856;85.7179;274.4237;1.4024E-5;6.7E-7;0;Iridium
14.43277232;0.0001874;86.445;101.5504;86.6858;273.4557;1.2059E-5;6.1E-7;0;Iridium
14.43277232;0.0001874;86.445;101.5504;86.6858;273.4557;1.2059E-5;6.1E-7;0;Iridium
14.43277293;0.0001875;86.445;101.3763;86.9266;273.2149;1.2632E-5;6.3E-7;0;Iridium
14.43277385;0.0001869;86.4451;101.1153;87.3415;272.7999;1.2747E-5;6.3E-7;0;Iridium
14.43277421;0.0001873;86.4451;100.9412;87.5483;272.5932;1.2737E-5;6.3E-7;0;Iridium
14.43277485;0.0001869;86.4452;100.7381;87.9901;272.1514;1.2924E-5;6.4E-7;0;Iridium
14.43277537;0.0001871;86.4452;100.5351;88.4428;271.6987;1.3325E-5;6.5E-7;0;Iridium
14.43277604;0.0001867;86.4452;100.3029;88.9152;271.2263;1.3603E-5;6.6E-7;0;Iridium
14.43277604;0.0001867;86.4452;100.3029;88.9152;271.2263;1.3603E-5;6.6E-7;0;Iridium
14.43277656;0.0001868;86.4453;100.1289;89.1422;270.9993;1.4708E-5;7.0E-7;0;Iridium
14.43277698;0.0001866;86.4453;99.8968;89.2524;270.8891;1.4439E-5;6.9E-7;0;Iridium
14.43277698;0.0001866;86.4453;99.8968;89.2524;270.8891;1.4439E-5;6.9E-7;0;Iridium
14.43277795;0.0001869;86.4454;99.6938;89.3997;270.7418;1.721E-5;7.8E-7;0;Iridium
14.43277848;0.0001865;86.4454;99.4617;89.8184;270.323;1.7554E-5;7.9E-7;0;Iridium
14.43277921;0.0001863;86.4455;99.0556;90.2899;269.8515;1.7809E-5;8.0E-7;0;Iridium
14.43277957;0.0001867;86.4456;98.8526;90.5809;269.5606;1.7705E-5;8.0E-7;0;Iridium
14.43278013;0.0001871;86.4456;98.6206;90.9588;269.1827;1.8025E-5;8.1E-7;0;Iridium
14.43278067;0.0001874;86.4457;98.4466;91.2634;268.8782;1.8921E-5;8.4E-7;0;Iridium
14.43278131;0.0001878;86.4457;98.1855;91.8465;268.2951;1.8546E-5;8.3E-7;0;Iridium
14.43278176;0.000188;86.4457;98.0405;92.1237;268.0179;1.9092E-5;8.4E-7;0;Iridium
14.43278303;0.0001885;86.4458;97.8085;92.6719;267.4698;2.12E-5;9.2E-7;0;Iridium
14.432784;0.0001896;86.4458;97.6054;92.9921;267.1497;2.2248E-5;9.5E-7;0;Iridium
14.43278601;0.0001903;86.4459;97.2284;93.4793;266.6626;2.481E-5;1.04E-6;0;Iridium
14.43278605;0.0001906;86.4459;97.1994;93.5485;266.5934;2.4159E-5;1.01E-6;0;Iridium
14.43278706;0.0001907;86.446;96.9674;93.879;266.2629;2.3721E-5;1.0E-6;0;Iridium
14.43278785;0.0001916;86.446;96.7644;94.0332;266.1088;2.3435E-5;9.9E-7;0;Iridium
14.43278851;0.0001924;86.4461;96.5614;94.1873;265.9547;2.2274E-5;9.5E-7;0;Iridium
14.43278946;0.0001934;86.4462;96.3584;94.4027;265.7394;2.2575E-5;9.6E-7;0;Iridium
14.43279031;0.0001941;86.4463;96.1263;94.7335;265.4088;2.1484E-5;9.2E-7;0;Iridium
14.43279075;0.0001947;86.4463;95.9524;94.8952;265.2471;2.0616E-5;9.0E-7;0;Iridium
14.43279082;0.000195;86.4465;95.7204;94.992;265.1504;1.693E-5;7.7E-7;0;Iridium
14.43279122;0.0001959;86.4465;95.5174;95.1679;264.9746;1.5615E-5;7.3E-7;0;Iridium
14.43279136;0.0001966;86.4466;95.3144;95.0886;265.0539;1.3404E-5;6.5E-7;0;Iridium
14.43279136;0.0001966;86.4466;95.3144;95.0886;265.0539;1.3404E-5;6.5E-7;0;Iridium
14.43279185;0.0001977;86.4467;95.1114;95.2215;264.9211;1.3589E-5;6.6E-7;0;Iridium
14.43279211;0.0001983;86.4468;94.8794;95.3425;264.8002;1.1912E-5;6.0E-7;0;Iridium
14.43279211;0.0001983;86.4468;94.8794;95.3425;264.8002;1.1912E-5;6.0E-7;0;Iridium
14.43279239;0.0001991;86.4469;94.6764;95.4984;264.6444;1.1592E-5;5.9E-7;0;Iridium
14.43279289;0.0001996;86.4469;94.4735;95.7216;264.4212;1.1803E-5;6.0E-7;0;Iridium
14.43279386;0.0002017;86.447;94.2705;96.0457;264.0974;1.453E-5;6.9E-7;0;Iridium
14.43279424;0.0002018;86.4471;94.0675;95.9708;264.1723;1.4289E-5;6.8E-7;0;Iridium
14.43279487;0.0002036;86.4471;93.8356;96.2627;263.8806;1.5336E-5;7.2E-7;0;Iridium
14.43279585;0.0002055;86.4472;93.6326;96.9292;263.2143;1.7832E-5;8.0E-7;0;Iridium
14.43279585;0.0002055;86.4472;93.6326;96.9292;263.2143;1.7832E-5;8.0E-7;0;Iridium
14.43279724;0.0002076;86.4473;93.2267;97.0201;263.1236;2.0313E-5;8.9E-7;0;Iridium
14.43279928;0.0002101;86.4474;92.7919;97.0544;263.0895;2.3385E-5;9.9E-7;0;Iridium
14.43279928;0.0002101;86.4474;92.7919;97.0544;263.0895;2.3385E-5;9.9E-7;0;Iridium
14.43280007;0.0002112;86.4475;92.5889;97.1289;263.0152;2.4451E-5;1.02E-6;0;Iridium
